COSMOS 2550             
1 48865U 21056A   26067.47400841 -.00000192  00000+0 -13338-7 0  9992
2 48865  67.1451  44.6088 0008369 269.6014  90.4182 15.33829151263273
STARLINK-32273          
1 61956U 24209T   26068.52449591  .00019850  00000+0  68061-3 0  9991
2 61956  53.1605 143.0238 0001300  64.5828 295.5308 15.30196803 74871
